start=new Date('2022-03-29T00:00:00.000Z').valueOf();
sats=[{"MEAN_MOTION_DOT":"0.00002420","MEAN_MOTION":"15.06399464","OBJECT_ID":"2021-027BJ","MEAN_MOTION_DDOT":"0.0000000000000","REF_FRAME":"TEME","EPOCH":"2022-03-28T16:40:47.008992","TLE_LINE2":"2 48148  53.0531 164.9909 0001444  64.6315 295.4823 15.06399464 55066","CENTER_NAME":"EARTH","GP_ID":"199942454","RA_OF_ASC_NODE":"164.9909","MEAN_ELEMENT_THEORY":"SGP4","APOAPSIS":"548.215","SITE":"AFETR","COUNTRY_CODE":"US","BSTAR":"0.00018128000000","MEAN_ANOMALY":"295.4823","SEMIMAJOR_AXIS":"6925.350","EPHEMERIS_TYPE":"0","ELEMENT_SET_NO":"999","PERIAPSIS":"546.215","INCLINATION":"53.0531","OBJECT_NAME":"STARLINK-2491","REV_AT_EPOCH":"5506","TLE_LINE1":"1 48148U 21027BJ  22087.69498853  .00002420  00000-0  18128-3 0  9999","ECCENTRICITY":"0.00014440","LAUNCH_DATE":"2021-04-07","PERIOD":"95.592","FILE":"3378342","TIME_SYSTEM":"UTC","DECAY_DATE":null,"ARG_OF_PERICENTER":"64.6315","OBJECT_TYPE":"PAYLOAD","NORAD_CAT_ID":"48148","RCS_SIZE":"MEDIUM","CLASSIFICATION_TYPE":"U"},{"EPHEMERIS_TYPE":"0","SEMIMAJOR_AXIS":"6925.337","MEAN_ANOMALY":"288.0738","SITE":"AFETR","BSTAR":"0.00017642000000","COUNTRY_CODE":"US","MEAN_ELEMENT_THEORY":"SGP4","APOAPSIS":"548.364","RA_OF_ASC_NODE":"146.1112","CENTER_NAME":"EARTH","GP_ID":"199913612","TLE_LINE2":"2 48149  53.0537 146.1112 0001678  72.0434 288.0738 15.06403712 54913","EPOCH":"2022-03-28T10:37:12.635040","MEAN_MOTION_DDOT":"0.0000000000000","REF_FRAME":"TEME","OBJECT_ID":"2021-027BK","MEAN_MOTION_DOT":"0.00002347","MEAN_MOTION":"15.06403712","NORAD_CAT_ID":"48149","RCS_SIZE":"LARGE","CLASSIFICATION_TYPE":"U","DECAY_DATE":null,"ARG_OF_PERICENTER":"72.0434","OBJECT_TYPE":"PAYLOAD","TIME_SYSTEM":"UTC","FILE":"3378017","PERIOD":"95.592","LAUNCH_DATE":"2021-04-07","ECCENTRICITY":"0.00016780","REV_AT_EPOCH":"5491","TLE_LINE1":"1 48149U 21027BK  22087.44250735  .00002347  00000-0  17642-3 0  9996","INCLINATION":"53.0537","OBJECT_NAME":"STARLINK-2492","PERIAPSIS":"546.040","ELEMENT_SET_NO":"999"},{"OBJECT_ID":"2021-027BL","MEAN_MOTION":"15.06394236","MEAN_MOTION_DOT":"0.00001529","TLE_LINE2":"2 48150  53.0538 145.8139 0001374  79.1354 280.9790 15.06394236 55339","EPOCH":"2022-03-28T12:18:03.940704","REF_FRAME":"TEME","MEAN_MOTION_DDOT":"0.0000000000000","APOAPSIS":"548.183","MEAN_ELEMENT_THEORY":"SGP4","RA_OF_ASC_NODE":"145.8139","GP_ID":"199905731","CENTER_NAME":"EARTH","EPHEMERIS_TYPE":"0","SEMIMAJOR_AXIS":"6925.366","MEAN_ANOMALY":"280.9790","COUNTRY_CODE":"US","BSTAR":"0.00012156000000","SITE":"AFETR","OBJECT_NAME":"STARLINK-2493","INCLINATION":"53.0538","PERIAPSIS":"546.280","ELEMENT_SET_NO":"999","PERIOD":"95.593","LAUNCH_DATE":"2021-04-07","ECCENTRICITY":"0.00013740","TLE_LINE1":"1 48150U 21027BL  22087.51254561  .00001529  00000-0  12156-3 0  9993","REV_AT_EPOCH":"5533","TIME_SYSTEM":"UTC","FILE":"3377801","CLASSIFICATION_TYPE":"U","RCS_SIZE":"LARGE","NORAD_CAT_ID":"48150","OBJECT_TYPE":"PAYLOAD","DECAY_DATE":null,"ARG_OF_PERICENTER":"79.1354"},{"ECCENTRICITY":"0.00014610","REV_AT_EPOCH":"5532","TLE_LINE1":"1 48151U 21027BM  22087.44987805  .00002326  00000-0  17496-3 0  9998","PERIOD":"95.592","LAUNCH_DATE":"2021-04-07","ELEMENT_SET_NO":"999","INCLINATION":"53.0527","OBJECT_NAME":"STARLINK-2503","PERIAPSIS":"546.197","NORAD_CAT_ID":"48151","RCS_SIZE":"LARGE","CLASSIFICATION_TYPE":"U","DECAY_DATE":null,"ARG_OF_PERICENTER":"62.5441","OBJECT_TYPE":"PAYLOAD","FILE":"3377801","TIME_SYSTEM":"UTC","MEAN_MOTION_DDOT":"0.0000000000000","REF_FRAME":"TEME","TLE_LINE2":"2 48151  53.0527 146.0901 0001461  62.5441 297.5697 15.06401433 55325","EPOCH":"2022-03-28T10:47:49.463520","MEAN_MOTION":"15.06401433","MEAN_MOTION_DOT":"0.00002326","OBJECT_ID":"2021-027BM","MEAN_ANOMALY":"297.5697","SITE":"AFETR","BSTAR":"0.00017496000000","COUNTRY_CODE":"US","EPHEMERIS_TYPE":"0","SEMIMAJOR_AXIS":"6925.344","RA_OF_ASC_NODE":"146.0901","CENTER_NAME":"EARTH","GP_ID":"199905968","MEAN_ELEMENT_THEORY":"SGP4","APOAPSIS":"548.221"},{"CLASSIFICATION_TYPE":"U","RCS_SIZE":"LARGE","NORAD_CAT_ID":"48276","OBJECT_TYPE":"PAYLOAD","DECAY_DATE":null,"ARG_OF_PERICENTER":"57.1663","FILE":"3377847","TIME_SYSTEM":"UTC","ECCENTRICITY":"0.00015820","TLE_LINE1":"1 48276U 21036A   22087.91667824 -.00043441  00000-0 -29136-2 0  9992","REV_AT_EPOCH":"5207","PERIOD":"95.591","LAUNCH_DATE":"2021-04-29","ELEMENT_SET_NO":"999","OBJECT_NAME":"STARLINK-2567","INCLINATION":"53.0571","PERIAPSIS":"546.052","MEAN_ANOMALY":"93.3134","COUNTRY_CODE":"US","BSTAR":"-0.00291360000000","SITE":"AFETR","EPHEMERIS_TYPE":"0","SEMIMAJOR_AXIS":"6925.282","RA_OF_ASC_NODE":"38.9916","GP_ID":"199909924","CENTER_NAME":"EARTH","APOAPSIS":"548.243","MEAN_ELEMENT_THEORY":"SGP4","REF_FRAME":"TEME","MEAN_MOTION_DDOT":"0.0000000000000","TLE_LINE2":"2 48276  53.0571  38.9916 0001582  57.1663  93.3134 15.06421669 52077","EPOCH":"2022-03-28T22:00:00.999936","MEAN_MOTION_DOT":"-0.00043441","MEAN_MOTION":"15.06421669","OBJECT_ID":"2021-036A"},{"RA_OF_ASC_NODE":"3.9840","GP_ID":"199943470","CENTER_NAME":"EARTH","APOAPSIS":"548.190","MEAN_ELEMENT_THEORY":"SGP4","MEAN_ANOMALY":"74.8854","BSTAR":"-0.00422410000000","COUNTRY_CODE":"US","SITE":"AFETR","EPHEMERIS_TYPE":"0","SEMIMAJOR_AXIS":"6925.260","MEAN_MOTION":"15.06428842","MEAN_MOTION_DOT":"-0.00062697","OBJECT_ID":"2021-036B","REF_FRAME":"TEME","MEAN_MOTION_DDOT":"0.0000000000000","TLE_LINE2":"2 48277  53.0582   3.9840 0001538  68.1196  74.8854 15.06428842  3598","EPOCH":"2022-03-28T22:00:00.999936","FILE":"3378342","TIME_SYSTEM":"UTC","CLASSIFICATION_TYPE":"U","NORAD_CAT_ID":"48277","RCS_SIZE":"LARGE","OBJECT_TYPE":"PAYLOAD","ARG_OF_PERICENTER":"68.1196","DECAY_DATE":null,"ELEMENT_SET_NO":"999","OBJECT_NAME":"STARLINK-2569","INCLINATION":"53.0582","PERIAPSIS":"546.060","ECCENTRICITY":"0.00015380","TLE_LINE1":"1 48277U 21036B   22087.91667824 -.00062697  00000-0 -42241-2 0  9999","REV_AT_EPOCH":"359","PERIOD":"95.590","LAUNCH_DATE":"2021-04-29"},{"MEAN_MOTION_DOT":"-0.00042901","MEAN_MOTION":"15.06417634","OBJECT_ID":"2021-036C","REF_FRAME":"TEME","MEAN_MOTION_DDOT":"0.0000000000000","TLE_LINE2":"2 48278  53.0499  19.1014 0001726  54.0912 246.4243 15.06417634 52351","EPOCH":"2022-03-28T22:00:00.999936","RA_OF_ASC_NODE":"19.1014","GP_ID":"199909532","CENTER_NAME":"EARTH","APOAPSIS":"548.355","MEAN_ELEMENT_THEORY":"SGP4","MEAN_ANOMALY":"246.4243","COUNTRY_CODE":"US","BSTAR":"-0.00287720000000","SITE":"AFETR","EPHEMERIS_TYPE":"0","SEMIMAJOR_AXIS":"6925.295","ELEMENT_SET_NO":"999","OBJECT_NAME":"STARLINK-2543","INCLINATION":"53.0499","PERIAPSIS":"545.964","ECCENTRICITY":"0.00017260","TLE_LINE1":"1 48278U 21036C   22087.91667824 -.00042901  00000-0 -28772-2 0  9999","REV_AT_EPOCH":"5235","PERIOD":"95.591","LAUNCH_DATE":"2021-04-29","FILE":"3377847","TIME_SYSTEM":"UTC","CLASSIFICATION_TYPE":"U","RCS_SIZE":"LARGE","NORAD_CAT_ID":"48278","OBJECT_TYPE":"PAYLOAD","DECAY_DATE":null,"ARG_OF_PERICENTER":"54.0912"},{"MEAN_MOTION":"15.06397638","MEAN_MOTION_DOT":"-0.00009523","OBJECT_ID":"2021-036D","MEAN_MOTION_DDOT":"0.0000000000000","REF_FRAME":"TEME","TLE_LINE2":"2 48279  53.0552  18.9981 0001674  53.8911 286.5757 15.06397638 52356","EPOCH":"2022-03-28T22:00:00.999936","RA_OF_ASC_NODE":"18.9981","CENTER_NAME":"EARTH","GP_ID":"199909941","MEAN_ELEMENT_THEORY":"SGP4","APOAPSIS":"548.380","MEAN_ANOMALY":"286.5757","SITE":"AFETR","COUNTRY_CODE":"US","BSTAR":"-0.00062130000000","EPHEMERIS_TYPE":"0","SEMIMAJOR_AXIS":"6925.356","ELEMENT_SET_NO":"999","INCLINATION":"53.0552","OBJECT_NAME":"STARLINK-2580","PERIAPSIS":"546.061","ECCENTRICITY":"0.00016740","REV_AT_EPOCH":"5235","TLE_LINE1":"1 48279U 21036D   22087.91667824 -.00009523  00000-0 -62130-3 0  9990","PERIOD":"95.592","LAUNCH_DATE":"2021-04-29","FILE":"3377848","TIME_SYSTEM":"UTC","RCS_SIZE":"LARGE","NORAD_CAT_ID":"48279","CLASSIFICATION_TYPE":"U","DECAY_DATE":null,"ARG_OF_PERICENTER":"53.8911","OBJECT_TYPE":"PAYLOAD"},{"APOAPSIS":"548.242","MEAN_ELEMENT_THEORY":"SGP4","RA_OF_ASC_NODE":"89.8847","GP_ID":"199943219","CENTER_NAME":"EARTH","EPHEMERIS_TYPE":"0","SEMIMAJOR_AXIS":"6925.335","MEAN_ANOMALY":"302.2612","BSTAR":"0.00013940000000","COUNTRY_CODE":"US","SITE":"AFETR","OBJECT_ID":"2021-036E","MEAN_MOTION":"15.06404496","MEAN_MOTION_DOT":"0.00001796","TLE_LINE2":"2 48280  53.0554  89.8847 0001505  57.8522 302.2612 15.06404496 50763","EPOCH":"2022-03-28T17:09:19.164960","REF_FRAME":"TEME","MEAN_MOTION_DDOT":"0.0000000000000","TIME_SYSTEM":"UTC","FILE":"3378342","CLASSIFICATION_TYPE":"U","RCS_SIZE":"LARGE","NORAD_CAT_ID":"48280","OBJECT_TYPE":"PAYLOAD","ARG_OF_PERICENTER":"57.8522","DECAY_DATE":null,"OBJECT_NAME":"STARLINK-2565","INCLINATION":"53.0554","PERIAPSIS":"546.158","ELEMENT_SET_NO":"999","PERIOD":"95.592","LAUNCH_DATE":"2021-04-29","ECCENTRICITY":"0.00015050","TLE_LINE1":"1 48280U 21036E   22087.71480515  .00001796  00000-0  13940-3 0  9997","REV_AT_EPOCH":"5076"},{"MEAN_ANOMALY":"302.4752","BSTAR":"0.00031391000000","COUNTRY_CODE":"US","SITE":"AFETR","EPHEMERIS_TYPE":"0","SEMIMAJOR_AXIS":"6925.312","RA_OF_ASC_NODE":"69.2448","GP_ID":"199943971","CENTER_NAME":"EARTH","APOAPSIS":"548.445","MEAN_ELEMENT_THEORY":"SGP4","REF_FRAME":"TEME","MEAN_MOTION_DDOT":"0.0000000000000","TLE_LINE2":"2 48281  53.0551  69.2448 0001832  57.6414 302.4752 15.06412028 51062","EPOCH":"2022-03-28T20:38:58.158240","MEAN_MOTION_DOT":"0.00004399","MEAN_MOTION":"15.06412028","OBJECT_ID":"2021-036F","CLASSIFICATION_TYPE":"U","RCS_SIZE":"LARGE","NORAD_CAT_ID":"48281","OBJECT_TYPE":"PAYLOAD","ARG_OF_PERICENTER":"57.6414","DECAY_DATE":null,"FILE":"3378342","TIME_SYSTEM":"UTC","ECCENTRICITY":"0.00018320","TLE_LINE1":"1 48281U 21036F   22087.86039535  .00004399  00000-0  31391-3 0  9998","REV_AT_EPOCH":"5106","PERIOD":"95.591","LAUNCH_DATE":"2021-04-29","ELEMENT_SET_NO":"999","OBJECT_NAME":"STARLINK-2520","INCLINATION":"53.0551","PERIAPSIS":"545.908"}];
